{"type":"FeatureCollection","features":[{"type":"Feature","properties":{"name":"StartMarker"},"geometry":{"type":"Point","coordinates":{"lat":48.60625906129865,"lng":-1.8010684847831728}}},{"type":"Feature","properties":{"name":"LastMarker"},"geometry":{"type":"Point","coordinates":{"lat":48.60241206998337,"lng":-1.80276095867157}}},{"type":"Feature","properties":{"name":"Route","distance":5216.4},"geometry":{"type":"LineString","coordinates":[[48.60625906129865,-1.8010684847831728,8],[48.5896522924805,-1.8045258522033694,6],[48.59142640131595,-1.8152761459350588,6],[48.60420524070783,-1.806950569152832,5],[48.60241206998337,-1.80276095867157,6]]}}]}